[{"OBJECT_NAME":"ONEWEB-0615","OBJECT_ID":"2022-166AL","EPOCH":"2026-03-09T22:30:16.143840","MEAN_MOTION":13.21825646,"ECCENTRICITY":0.0001574,"INCLINATION":87.9162,"RA_OF_ASC_NODE":263.7781,"ARG_OF_PERICENTER":92.8749,"MEAN_ANOMALY":267.2565,"EPHEMERIS_TYPE":0,"CLASSIFICATION_TYPE":"U","NORAD_CAT_ID":54676,"ELEMENT_SET_NO":999,"REV_AT_EPOCH":15833,"BSTAR":-0.00016981122,"MEAN_MOTION_DOT":-5.7e-7,"MEAN_MOTION_DDOT":0},{"OBJECT_NAME":"FREGAT DEB","OBJECT_ID":"2011-037PF","EPOCH":"2026-03-09T22:12:32.097600","MEAN_MOTION":12.40182655,"ECCENTRICITY":0.09600707,"INCLINATION":51.6503,"RA_OF_ASC_NODE":300.0451,"ARG_OF_PERICENTER":59.9492,"MEAN_ANOMALY":309.3092,"EPHEMERIS_TYPE":0,"CLASSIFICATION_TYPE":"U","NORAD_CAT_ID":49271,"ELEMENT_SET_NO":999,"REV_AT_EPOCH":21272,"BSTAR":0.033326982,"MEAN_MOTION_DOT":0.00023181,"MEAN_MOTION_DDOT":0}]
